[{"OBJECT_NAME":"TIANQI-39","OBJECT_ID":"2026-010C","EPOCH":"2026-03-08T16:50:36.580128","MEAN_MOTION":14.04334884,"ECCENTRICITY":0.00155129,"INCLINATION":44.9813,"RA_OF_ASC_NODE":168.7554,"ARG_OF_PERICENTER":221.5775,"MEAN_ANOMALY":138.3881,"EPHEMERIS_TYPE":0,"CLASSIFICATION_TYPE":"U","NORAD_CAT_ID":67478,"ELEMENT_SET_NO":999,"REV_AT_EPOCH":732,"BSTAR":0.00014701681,"MEAN_MOTION_DOT":1.06e-6,"MEAN_MOTION_DDOT":0},{"OBJECT_NAME":"METEOR 2-17 DEB","OBJECT_ID":"1988-005L","EPOCH":"2026-03-09T10:37:56.031168","MEAN_MOTION":14.05329035,"ECCENTRICITY":0.00340693,"INCLINATION":82.5488,"RA_OF_ASC_NODE":327.985,"ARG_OF_PERICENTER":88.9929,"MEAN_ANOMALY":271.5146,"EPHEMERIS_TYPE":0,"CLASSIFICATION_TYPE":"U","NORAD_CAT_ID":29066,"ELEMENT_SET_NO":999,"REV_AT_EPOCH":60621,"BSTAR":0.0012002285,"MEAN_MOTION_DOT":1.968e-5,"MEAN_MOTION_DDOT":0}]
